{"type": "FeatureCollection", "features": [ {"type": "Feature", "properties": {"norad_id": 29940, "name": "FENGYUN 1C DEB", "group": "fengyun-1c-debris", "lat": 21.90559575947954, "lon": -5.014647957276227, "alt_km": 811.5657252422416, "timestamp": "2025-12-14T20:40:32.044120+00:00", "meta": {"OBJECT_NAME": "FENGYUN 1C DEB", "OBJECT_ID": "1999-025JN", "EPOCH": "2025-12-14T00:31:06.070656", "MEAN_MOTION": 14.18825466, "ECCENTRICITY": 0.0074717, "INCLINATION": 98.6216, "RA_OF_ASC_NODE": 357.6663, "ARG_OF_PERICENTER": 96.1922, "MEAN_ANOMALY": 319.3742, "EPHEMERIS_TYPE": 0, "CLASSIFICATION_TYPE": "U", "NORAD_CAT_ID": 29940, "ELEMENT_SET_NO": 999, "REV_AT_EPOCH": 97506, "BSTAR": 0.00074511606, "MEAN_MOTION_DOT": 1.552e-05, "MEAN_MOTION_DDOT": 0}, "tle": {"line1": "1 29940U 99025JN  25348.02159804  .00001552  00000+0  74512-3 0  9994", "line2": "2 29940  98.6216 357.6663 0074717  96.1922 319.3742 14.18825466975060"}}, "geometry": {"type": "Point", "coordinates": [-5.014647957276227, 21.90559575947954]}}, {"type": "Feature", "properties": {"norad_id": 29942, "name": "FENGYUN 1C DEB", "group": "fengyun-1c-debris", "lat": -26.640947487162293, "lon": 59.05764113099893, "alt_km": 780.1776132970272, "timestamp": "2025-12-14T20:40:32.044130+00:00", "meta": {"OBJECT_NAME": "FENGYUN 1C DEB", "OBJECT_ID": "1999-025JQ", "EPOCH": "2025-12-14T04:00:47.708640", "MEAN_MOTION": 14.30419463, "ECCENTRICITY": 0.00488363, "INCLINATION": 98.6371, "RA_OF_ASC_NODE": 53.9954, "ARG_OF_PERICENTER": 271.7698, "MEAN_ANOMALY": 87.7891, "EPHEMERIS_TYPE": 0, "CLASSIFICATION_TYPE": "U", "NORAD_CAT_ID": 29942, "ELEMENT_SET_NO": 999, "REV_AT_EPOCH": 97889, "BSTAR": 0.00086113362, "MEAN_MOTION_DOT": 2.225e-05, "MEAN_MOTION_DDOT": 0}, "tle": {"line1": "1 29942U 99025JQ  25348.16721885  .00002225  00000+0  86113-3 0  9993", "line2": "2 29942  98.6371  53.9954 0048836 271.7698  87.7891 14.30419463978892"}}, "geometry": {"type": "Point", "coordinates": [59.05764113099893, -26.640947487162293]}}, {"type": "Feature", "properties": {"norad_id": 29943, "name": "FENGYUN 1C DEB", "group": "fengyun-1c-debris", "lat": 55.650391572583395, "lon": -170.45819820379634, "alt_km": 858.4324365018374, "timestamp": "2025-12-14T20:40:32.044140+00:00", "meta": {"OBJECT_NAME": "FENGYUN 1C DEB", "OBJECT_ID": "1999-025JR", "EPOCH": "2025-12-14T06:46:27.156864", "MEAN_MOTION": 14.09671402, "ECCENTRICITY": 0.00349351, "INCLINATION": 98.7269, "RA_OF_ASC_NODE": 355.9922, "ARG_OF_PERICENTER": 222.5902, "MEAN_ANOMALY": 203.2889, "EPHEMERIS_TYPE": 0, "CLASSIFICATION_TYPE": "U", "NORAD_CAT_ID": 29943, "ELEMENT_SET_NO": 999, "REV_AT_EPOCH": 97328, "BSTAR": 3.4808443e-05, "MEAN_MOTION_DOT": 1.9e-07, "MEAN_MOTION_DDOT": 0}, "tle": {"line1": "1 29943U 99025JR  25348.28225876  .00000019  00000+0  34808-4 0  9990", "line2": "2 29943  98.7269 355.9922 0034935 222.5902 203.2889 14.09671402973286"}}, "geometry": {"type": "Point", "coordinates": [-170.45819820379634, 55.650391572583395]}}, {"type": "Feature", "properties": {"norad_id": 29944, "name": "FENGYUN 1C DEB", "group": "fengyun-1c-debris", "lat": 14.430790021473353, "lon": 105.56499890064035, "alt_km": 546.8533319634198, "timestamp": "2025-12-14T20:40:32.044151+00:00", "meta": {"OBJECT_NAME": "FENGYUN 1C DEB", "OBJECT_ID": "1999-025JS", "EPOCH": "2025-12-14T07:00:23.578848", "MEAN_MOTION": 14.87548062, "ECCENTRICITY": 0.01664838, "INCLINATION": 99.0026, "RA_OF_ASC_NODE": 282.5811, "ARG_OF_PERICENTER": 227.041, "MEAN_ANOMALY": 131.6741, "EPHEMERIS_TYPE": 0, "CLASSIFICATION_TYPE": "U", "NORAD_CAT_ID": 29944, "ELEMENT_SET_NO": 999, "REV_AT_EPOCH": 477, "BSTAR": 0.0008153183, "MEAN_MOTION_DOT": 9.487e-05, "MEAN_MOTION_DDOT": 0}, "tle": {"line1": "1 29944U 99025JS  25348.29193957  .00009487  00000+0  81532-3 0  9999", "line2": "2 29944  99.0026 282.5811 0166483 227.0410 131.6741 14.87548062  4773"}}, "geometry": {"type": "Point", "coordinates": [105.56499890064035, 14.430790021473353]}}, {"type": "Feature", "properties": {"norad_id": 29945, "name": "FENGYUN 1C DEB", "group": "fengyun-1c-debris", "lat": -59.67862288280932, "lon": 27.783444113285533, "alt_km": 869.5130058110535, "timestamp": "2025-12-14T20:40:32.044180+00:00", "meta": {"OBJECT_NAME": "FENGYUN 1C DEB", "OBJECT_ID": "1999-025JT", "EPOCH": "2025-12-14T07:36:02.080800", "MEAN_MOTION": 14.05572286, "ECCENTRICITY": 0.00308308, "INCLINATION": 98.7918, "RA_OF_ASC_NODE": 11.9112, "ARG_OF_PERICENTER": 357.9866, "MEAN_ANOMALY": 66.3581, "EPHEMERIS_TYPE": 0, "CLASSIFICATION_TYPE": "U", "NORAD_CAT_ID": 29945, "ELEMENT_SET_NO": 999, "REV_AT_EPOCH": 97000, "BSTAR": 0.00013185966, "MEAN_MOTION_DOT": 1.73e-06, "MEAN_MOTION_DDOT": 0}, "tle": {"line1": "1 29945U 99025JT  25348.31669075  .00000173  00000+0  13186-3 0  9995", "line2": "2 29945  98.7918  11.9112 0030830 357.9866  66.3581 14.05572286970001"}}, "geometry": {"type": "Point", "coordinates": [27.783444113285533, -59.67862288280932]}}, {"type": "Feature", "properties": {"norad_id": 29946, "name": "FENGYUN 1C DEB", "group": "fengyun-1c-debris", "lat": -18.305644540360348, "lon": -16.0249132103851, "alt_km": 812.0429562680838, "timestamp": "2025-12-14T20:40:32.044195+00:00", "meta": {"OBJECT_NAME": "FENGYUN 1C DEB", "OBJECT_ID": "1999-025JU", "EPOCH": "2025-12-14T05:29:16.573920", "MEAN_MOTION": 14.08256198, "ECCENTRICITY": 0.00806003, "INCLINATION": 98.78, "RA_OF_ASC_NODE": 340.4286, "ARG_OF_PERICENTER": 339.2724, "MEAN_ANOMALY": 35.8185, "EPHEMERIS_TYPE": 0, "CLASSIFICATION_TYPE": "U", "NORAD_CAT_ID": 29946, "ELEMENT_SET_NO": 999, "REV_AT_EPOCH": 97068, "BSTAR": 0.00032108134, "MEAN_MOTION_DOT": 5.22e-06, "MEAN_MOTION_DDOT": 0}, "tle": {"line1": "1 29946U 99025JU  25348.22866405  .00000522  00000+0  32108-3 0  9995", "line2": "2 29946  98.7800 340.4286 0080600 339.2724  35.8185 14.08256198970689"}}, "geometry": {"type": "Point", "coordinates": [-16.0249132103851, -18.305644540360348]}}, {"type": "Feature", "properties": {"norad_id": 29947, "name": "FENGYUN 1C DEB", "group": "fengyun-1c-debris", "lat": -75.17106835973831, "lon": 55.33823466579189, "alt_km": 919.4030973953568, "timestamp": "2025-12-14T20:40:32.044206+00:00", "meta": {"OBJECT_NAME": "FENGYUN 1C DEB", "OBJECT_ID": "1999-025JV", "EPOCH": "2025-12-14T00:48:48.908160", "MEAN_MOTION": 14.03070105, "ECCENTRICITY": 0.00408984, "INCLINATION": 98.8368, "RA_OF_ASC_NODE": 18.5492, "ARG_OF_PERICENTER": 117.3229, "MEAN_ANOMALY": 306.694, "EPHEMERIS_TYPE": 0, "CLASSIFICATION_TYPE": "U", "NORAD_CAT_ID": 29947, "ELEMENT_SET_NO": 999, "REV_AT_EPOCH": 96768, "BSTAR": 0.00050059157, "MEAN_MOTION_DOT": 7.41e-06, "MEAN_MOTION_DDOT": 0}, "tle": {"line1": "1 29947U 99025JV  25348.03389940  .00000741  00000+0  50059-3 0  9997", "line2": "2 29947  98.8368  18.5492 0040898 117.3229 306.6940 14.03070105967683"}}, "geometry": {"type": "Point", "coordinates": [55.33823466579189, -75.17106835973831]}}, {"type": "Feature", "properties": {"norad_id": 29948, "name": "FENGYUN 1C DEB", "group": "fengyun-1c-debris", "lat": 8.509254211983697, "lon": 156.31652969746506, "alt_km": 840.1191055685877, "timestamp": "2025-12-14T20:40:32.044281+00:00", "meta": {"OBJECT_NAME": "FENGYUN 1C DEB", "OBJECT_ID": "1999-025JW", "EPOCH": "2025-12-13T21:58:29.859168", "MEAN_MOTION": 14.06192512, "ECCENTRICITY": 0.00837799, "INCLINATION": 98.8242, "RA_OF_ASC_NODE": 334.063, "ARG_OF_PERICENTER": 230.2656, "MEAN_ANOMALY": 196.2438, "EPHEMERIS_TYPE": 0, "CLASSIFICATION_TYPE": "U", "NORAD_CAT_ID": 29948, "ELEMENT_SET_NO": 999, "REV_AT_EPOCH": 96993, "BSTAR": 0.00029026449, "MEAN_MOTION_DOT": 4.49e-06, "MEAN_MOTION_DDOT": 0}, "tle": {"line1": "1 29948U 99025JW  25347.91562337  .00000449  00000+0  29026-3 0  9992", "line2": "2 29948  98.8242 334.0630 0083779 230.2656 196.2438 14.06192512969934"}}, "geometry": {"type": "Point", "coordinates": [156.31652969746506, 8.509254211983697]}}, {"type": "Feature", "properties": {"norad_id": 29949, "name": "FENGYUN 1C DEB", "group": "fengyun-1c-debris", "lat": 49.16373190185716, "lon": -165.24085331208545, "alt_km": 882.2800608616344, "timestamp": "2025-12-14T20:40:32.044299+00:00", "meta": {"OBJECT_NAME": "FENGYUN 1C DEB", "OBJECT_ID": "1999-025JX", "EPOCH": "2025-12-13T23:52:11.771616", "MEAN_MOTION": 14.06826512, "ECCENTRICITY": 0.00231993, "INCLINATION": 98.7623, "RA_OF_ASC_NODE": 3.6399, "ARG_OF_PERICENTER": 301.8314, "MEAN_ANOMALY": 120.1461, "EPHEMERIS_TYPE": 0, "CLASSIFICATION_TYPE": "U", "NORAD_CAT_ID": 29949, "ELEMENT_SET_NO": 999, "REV_AT_EPOCH": 97125, "BSTAR": 0.0001653308, "MEAN_MOTION_DOT": 2.33e-06, "MEAN_MOTION_DDOT": 0}, "tle": {"line1": "1 29949U 99025JX  25347.99458069  .00000233  00000+0  16533-3 0  9997", "line2": "2 29949  98.7623   3.6399 0023199 301.8314 120.1461 14.06826512971258"}}, "geometry": {"type": "Point", "coordinates": [-165.24085331208545, 49.16373190185716]}}, {"type": "Feature", "properties": {"norad_id": 29950, "name": "FENGYUN 1C DEB", "group": "fengyun-1c-debris", "lat": -7.329186837373356, "lon": 21.01350845677677, "alt_km": 872.5023596082165, "timestamp": "2025-12-14T20:40:32.044310+00:00", "meta": {"OBJECT_NAME": "FENGYUN 1C DEB", "OBJECT_ID": "1999-025JY", "EPOCH": "2025-12-14T02:16:08.139360", "MEAN_MOTION": 14.10334841, "ECCENTRICITY": 0.00323461, "INCLINATION": 98.741, "RA_OF_ASC_NODE": 19.1342, "ARG_OF_PERICENTER": 238.1339, "MEAN_ANOMALY": 182.479, "EPHEMERIS_TYPE": 0, "CLASSIFICATION_TYPE": "U", "NORAD_CAT_ID": 29950, "ELEMENT_SET_NO": 999, "REV_AT_EPOCH": 97310, "BSTAR": 0.00018431623, "MEAN_MOTION_DOT": 2.86e-06, "MEAN_MOTION_DDOT": 0}, "tle": {"line1": "1 29950U 99025JY  25348.09453865  .00000286  00000+0  18432-3 0  9998", "line2": "2 29950  98.7410  19.1342 0032346 238.1339 182.4790 14.10334841973103"}}, "geometry": {"type": "Point", "coordinates": [21.01350845677677, -7.329186837373356]}}]}